SOYUZ-MS 28             
1 66664U 25275A   26011.20933053  .00010931  00000+0  20450-3 0  9991
2 66664  51.6335 356.5770 0007704   5.3714 354.7355 15.49231619  1288
1998-067XS              
1 66906U 98067XS  26011.23107927  .00032329  00000+0  52692-3 0  9993
2 66906  51.6320 355.9745 0002304 357.1095   2.9881 15.52317167  6195
1998-067XT              
1 66907U 98067XT  26011.18872058  .00093235  00000+0  13112-2 0  9998
2 66907  51.6317 355.6918 0003717  42.4368 317.6910 15.55895824  6190
1998-067XU              
1 66908U 98067XU  26011.18772524  .00087673  00000+0  12358-2 0  9996
2 66908  51.6304 355.6832 0003671  38.4804 321.6448 15.55861060  6197
SILVERSAT               
1 66909U 98067XV  26011.18083389  .00103438  00000+0  14188-2 0  9992
2 66909  51.6315 355.6383 0003911  48.1318 312.0007 15.56521403  6196
1998-067XW              
1 66910U 98067XW  26011.24572124  .00096685  00000+0  13436-2 0  9991
2 66910  51.6294 355.3198 0002728  23.9037 336.2081 15.56203617  6205
1998-067XX              
1 66911U 98067XX  26011.23306304  .00112999  00000+0  15067-2 0  9995
2 66911  51.6298 355.2359 0002778  40.4994 319.6204 15.57240801  6196
1998-067XY              
1 66912U 98067XY  26011.13990300  .00058941  00000+0  87684-3 0  9991
2 66912  51.6320 356.1146 0003614  25.5693 334.5475 15.54563313  6174
