CCSDS_OMM_VERS = 2.0
CREATION_DATE  = 
ORIGINATOR     = 

OBJECT_NAME    = SOYUZ-MS 28
OBJECT_ID      = 2025-275A
CENTER_NAME    = EARTH
REF_FRAME      = TEME
TIME_SYSTEM    = UTC
MEAN_ELEMENT_THEORY = SGP/SGP4

EPOCH          = 2026-01-11T05:01:26.157792
MEAN_MOTION    = 15.49231619
ECCENTRICITY   = .0007704
INCLINATION    = 51.6335
RA_OF_ASC_NODE = 356.5770
ARG_OF_PERICENTER = 5.3714
MEAN_ANOMALY   = 354.7355

EPHEMERIS_TYPE = 0
CLASSIFICATION_TYPE = U
NORAD_CAT_ID   = 66664
ELEMENT_SET_NO = 999
REV_AT_EPOCH   = 128
BSTAR          = .2045032E-3
MEAN_MOTION_DOT = .10931E-3
MEAN_MOTION_DDOT = 0

CCSDS_OMM_VERS = 2.0
CREATION_DATE  = 
ORIGINATOR     = 

OBJECT_NAME    = 1998-067XS
OBJECT_ID      = 1998-067XS
CENTER_NAME    = EARTH
REF_FRAME      = TEME
TIME_SYSTEM    = UTC
MEAN_ELEMENT_THEORY = SGP/SGP4

EPOCH          = 2026-01-11T05:32:45.248928
MEAN_MOTION    = 15.52317167
ECCENTRICITY   = .00023048
INCLINATION    = 51.6320
RA_OF_ASC_NODE = 355.9745
ARG_OF_PERICENTER = 357.1095
MEAN_ANOMALY   = 2.9881

EPHEMERIS_TYPE = 0
CLASSIFICATION_TYPE = U
NORAD_CAT_ID   = 66906
ELEMENT_SET_NO = 999
REV_AT_EPOCH   = 619
BSTAR          = .52691501E-3
MEAN_MOTION_DOT = .32329E-3
MEAN_MOTION_DDOT = 0

CCSDS_OMM_VERS = 2.0
CREATION_DATE  = 
ORIGINATOR     = 

OBJECT_NAME    = 1998-067XT
OBJECT_ID      = 1998-067XT
CENTER_NAME    = EARTH
REF_FRAME      = TEME
TIME_SYSTEM    = UTC
MEAN_ELEMENT_THEORY = SGP/SGP4

EPOCH          = 2026-01-11T04:31:45.458112
MEAN_MOTION    = 15.55895824
ECCENTRICITY   = .00037173
INCLINATION    = 51.6317
RA_OF_ASC_NODE = 355.6918
ARG_OF_PERICENTER = 42.4368
MEAN_ANOMALY   = 317.6910

EPHEMERIS_TYPE = 0
CLASSIFICATION_TYPE = U
NORAD_CAT_ID   = 66907
ELEMENT_SET_NO = 999
REV_AT_EPOCH   = 619
BSTAR          = .13111577E-2
MEAN_MOTION_DOT = .93235E-3
MEAN_MOTION_DDOT = 0

CCSDS_OMM_VERS = 2.0
CREATION_DATE  = 
ORIGINATOR     = 

OBJECT_NAME    = 1998-067XU
OBJECT_ID      = 1998-067XU
CENTER_NAME    = EARTH
REF_FRAME      = TEME
TIME_SYSTEM    = UTC
MEAN_ELEMENT_THEORY = SGP/SGP4

EPOCH          = 2026-01-11T04:30:19.460736
MEAN_MOTION    = 15.55861060
ECCENTRICITY   = .00036716
INCLINATION    = 51.6304
RA_OF_ASC_NODE = 355.6832
ARG_OF_PERICENTER = 38.4804
MEAN_ANOMALY   = 321.6448

EPHEMERIS_TYPE = 0
CLASSIFICATION_TYPE = U
NORAD_CAT_ID   = 66908
ELEMENT_SET_NO = 999
REV_AT_EPOCH   = 619
BSTAR          = .12357958E-2
MEAN_MOTION_DOT = .87673E-3
MEAN_MOTION_DDOT = 0

CCSDS_OMM_VERS = 2.0
CREATION_DATE  = 
ORIGINATOR     = 

OBJECT_NAME    = SILVERSAT
OBJECT_ID      = 1998-067XV
CENTER_NAME    = EARTH
REF_FRAME      = TEME
TIME_SYSTEM    = UTC
MEAN_ELEMENT_THEORY = SGP/SGP4

EPOCH          = 2026-01-11T04:20:24.048096
MEAN_MOTION    = 15.56521403
ECCENTRICITY   = .00039111
INCLINATION    = 51.6315
RA_OF_ASC_NODE = 355.6383
ARG_OF_PERICENTER = 48.1318
MEAN_ANOMALY   = 312.0007

EPHEMERIS_TYPE = 0
CLASSIFICATION_TYPE = U
NORAD_CAT_ID   = 66909
ELEMENT_SET_NO = 999
REV_AT_EPOCH   = 619
BSTAR          = .14187607E-2
MEAN_MOTION_DOT = .103438E-2
MEAN_MOTION_DDOT = 0

CCSDS_OMM_VERS = 2.0
CREATION_DATE  = 
ORIGINATOR     = 

OBJECT_NAME    = 1998-067XW
OBJECT_ID      = 1998-067XW
CENTER_NAME    = EARTH
REF_FRAME      = TEME
TIME_SYSTEM    = UTC
MEAN_ELEMENT_THEORY = SGP/SGP4

EPOCH          = 2026-01-11T05:53:50.315136
MEAN_MOTION    = 15.56203617
ECCENTRICITY   = .00027282
INCLINATION    = 51.6294
RA_OF_ASC_NODE = 355.3198
ARG_OF_PERICENTER = 23.9037
MEAN_ANOMALY   = 336.2081

EPHEMERIS_TYPE = 0
CLASSIFICATION_TYPE = U
NORAD_CAT_ID   = 66910
ELEMENT_SET_NO = 999
REV_AT_EPOCH   = 620
BSTAR          = .13436058E-2
MEAN_MOTION_DOT = .96685E-3
MEAN_MOTION_DDOT = 0

CCSDS_OMM_VERS = 2.0
CREATION_DATE  = 
ORIGINATOR     = 

OBJECT_NAME    = 1998-067XX
OBJECT_ID      = 1998-067XX
CENTER_NAME    = EARTH
REF_FRAME      = TEME
TIME_SYSTEM    = UTC
MEAN_ELEMENT_THEORY = SGP/SGP4

EPOCH          = 2026-01-11T05:35:36.646656
MEAN_MOTION    = 15.57240801
ECCENTRICITY   = .00027781
INCLINATION    = 51.6298
RA_OF_ASC_NODE = 355.2359
ARG_OF_PERICENTER = 40.4994
MEAN_ANOMALY   = 319.6204

EPHEMERIS_TYPE = 0
CLASSIFICATION_TYPE = U
NORAD_CAT_ID   = 66911
ELEMENT_SET_NO = 999
REV_AT_EPOCH   = 619
BSTAR          = .15067406E-2
MEAN_MOTION_DOT = .112999E-2
MEAN_MOTION_DDOT = 0

CCSDS_OMM_VERS = 2.0
CREATION_DATE  = 
ORIGINATOR     = 

OBJECT_NAME    = 1998-067XY
OBJECT_ID      = 1998-067XY
CENTER_NAME    = EARTH
REF_FRAME      = TEME
TIME_SYSTEM    = UTC
MEAN_ELEMENT_THEORY = SGP/SGP4

EPOCH          = 2026-01-11T03:21:27.619200
MEAN_MOTION    = 15.54563313
ECCENTRICITY   = .0003614
INCLINATION    = 51.6320
RA_OF_ASC_NODE = 356.1146
ARG_OF_PERICENTER = 25.5693
MEAN_ANOMALY   = 334.5475

EPHEMERIS_TYPE = 0
CLASSIFICATION_TYPE = U
NORAD_CAT_ID   = 66912
ELEMENT_SET_NO = 999
REV_AT_EPOCH   = 617
BSTAR          = .87684436E-3
MEAN_MOTION_DOT = .58941E-3
MEAN_MOTION_DDOT = 0

